{"type": "FeatureCollection", "features": [{"type": "Feature", "properties": {"norad_id": 28890, "name": "BEIJING 1", "group": "dmc", "lat": -51.926236895840916, "lon": -86.31080017069525, "alt_km": 684.308740438747, "timestamp": "2025-12-02T21:34:00.939846+00:00", "meta": {"OBJECT_NAME": "BEIJING 1", "OBJECT_ID": "2005-043A", "EPOCH": "2025-12-02T12:18:09.432288", "MEAN_MOTION": 14.6335015, "ECCENTRICITY": 0.0014789, "INCLINATION": 98.2649, "RA_OF_ASC_NODE": 103.9958, "ARG_OF_PERICENTER": 172.4634, "MEAN_ANOMALY": 187.6793, "EPHEMERIS_TYPE": 0, "CLASSIFICATION_TYPE": "U", "NORAD_CAT_ID": 28890, "ELEMENT_SET_NO": 999, "REV_AT_EPOCH": 7188, "BSTAR": 0.00012562, "MEAN_MOTION_DOT": 6.01e-06, "MEAN_MOTION_DDOT": 0}, "tle": {"line1": "1 28890U 05043A   25336.51260917  .00000601  00000+0  12562-3 0  9994", "line2": "2 28890  98.2649 103.9958 0014789 172.4634 187.6793 14.63350150 71881"}}, "geometry": {"type": "Point", "coordinates": [-86.31080017069525, -51.926236895840916]}}, {"type": "Feature", "properties": {"norad_id": 33320, "name": "HUANJING 1A (HJ-1A)", "group": "dmc", "lat": -82.00559934259019, "lon": 38.84080526428341, "alt_km": 638.9805547266715, "timestamp": "2025-12-02T21:34:00.939869+00:00", "meta": {"OBJECT_NAME": "HUANJING 1A (HJ-1A)", "OBJECT_ID": "2008-041A", "EPOCH": "2025-12-02T12:14:54.784320", "MEAN_MOTION": 14.83341563, "ECCENTRICITY": 0.002068, "INCLINATION": 97.6535, "RA_OF_ASC_NODE": 325.2368, "ARG_OF_PERICENTER": 66.0297, "MEAN_ANOMALY": 294.308, "EPHEMERIS_TYPE": 0, "CLASSIFICATION_TYPE": "U", "NORAD_CAT_ID": 33320, "ELEMENT_SET_NO": 999, "REV_AT_EPOCH": 92924, "BSTAR": 0.00025021, "MEAN_MOTION_DOT": 2.006e-05, "MEAN_MOTION_DDOT": 0}, "tle": {"line1": "1 33320U 08041A   25336.51035630  .00002006  00000+0  25021-3 0  9996", "line2": "2 33320  97.6535 325.2368 0020680  66.0297 294.3080 14.83341563929243"}}, "geometry": {"type": "Point", "coordinates": [38.84080526428341, -82.00559934259019]}}, {"type": "Feature", "properties": {"norad_id": 33321, "name": "HUANJING 1B (HJ-1B)", "group": "dmc", "lat": 25.678744836637215, "lon": 153.03158413220427, "alt_km": 601.5524681368533, "timestamp": "2025-12-02T21:34:00.939883+00:00", "meta": {"OBJECT_NAME": "HUANJING 1B (HJ-1B)", "OBJECT_ID": "2008-041B", "EPOCH": "2025-12-02T12:46:48.766368", "MEAN_MOTION": 14.8277821, "ECCENTRICITY": 0.0038146, "INCLINATION": 97.6395, "RA_OF_ASC_NODE": 328.9816, "ARG_OF_PERICENTER": 108.0171, "MEAN_ANOMALY": 252.5206, "EPHEMERIS_TYPE": 0, "CLASSIFICATION_TYPE": "U", "NORAD_CAT_ID": 33321, "ELEMENT_SET_NO": 999, "REV_AT_EPOCH": 92926, "BSTAR": 0.00019968, "MEAN_MOTION_DOT": 1.583e-05, "MEAN_MOTION_DDOT": 0}, "tle": {"line1": "1 33321U 08041B   25336.53250887  .00001583  00000+0  19968-3 0  9994", "line2": "2 33321  97.6395 328.9816 0038146 108.0171 252.5206 14.82778210929260"}}, "geometry": {"type": "Point", "coordinates": [153.03158413220427, 25.678744836637215]}}, {"type": "Feature", "properties": {"norad_id": 33446, "name": "YAOGAN-4", "group": "dmc", "lat": 68.76298336001321, "lon": -113.88671408905056, "alt_km": 611.5540850229954, "timestamp": "2025-12-02T21:34:00.939895+00:00", "meta": {"OBJECT_NAME": "YAOGAN-4", "OBJECT_ID": "2008-061A", "EPOCH": "2025-12-02T09:54:49.934880", "MEAN_MOTION": 14.82629216, "ECCENTRICITY": 0.0014484, "INCLINATION": 97.9168, "RA_OF_ASC_NODE": 266.6147, "ARG_OF_PERICENTER": 357.7932, "MEAN_ANOMALY": 2.3215, "EPHEMERIS_TYPE": 0, "CLASSIFICATION_TYPE": "U", "NORAD_CAT_ID": 33446, "ELEMENT_SET_NO": 999, "REV_AT_EPOCH": 91650, "BSTAR": 0.00026593, "MEAN_MOTION_DOT": 2.092e-05, "MEAN_MOTION_DDOT": 0}, "tle": {"line1": "1 33446U 08061A   25336.41307795  .00002092  00000+0  26593-3 0  9990", "line2": "2 33446  97.9168 266.6147 0014484 357.7932   2.3215 14.82629216916506"}}, "geometry": {"type": "Point", "coordinates": [-113.88671408905056, 68.76298336001321]}}, {"type": "Feature", "properties": {"norad_id": 35681, "name": "DEIMOS-1", "group": "dmc", "lat": 65.65255842270139, "lon": -24.60856849549127, "alt_km": 637.1862615608143, "timestamp": "2025-12-02T21:34:00.939906+00:00", "meta": {"OBJECT_NAME": "DEIMOS-1", "OBJECT_ID": "2009-041A", "EPOCH": "2025-12-02T12:54:54.313632", "MEAN_MOTION": 14.74926986, "ECCENTRICITY": 0.0002667, "INCLINATION": 97.7145, "RA_OF_ASC_NODE": 137.6169, "ARG_OF_PERICENTER": 98.1757, "MEAN_ANOMALY": 261.9755, "EPHEMERIS_TYPE": 0, "CLASSIFICATION_TYPE": "U", "NORAD_CAT_ID": 35681, "ELEMENT_SET_NO": 999, "REV_AT_EPOCH": 87789, "BSTAR": 0.00015712, "MEAN_MOTION_DOT": 1.008e-05, "MEAN_MOTION_DDOT": 0}, "tle": {"line1": "1 35681U 09041A   25336.53812863  .00001008  00000+0  15712-3 0  9999", "line2": "2 35681  97.7145 137.6169 0002667  98.1757 261.9755 14.74926986877899"}}, "geometry": {"type": "Point", "coordinates": [-24.60856849549127, 65.65255842270139]}}, {"type": "Feature", "properties": {"norad_id": 35683, "name": "UK-DMC 2", "group": "dmc", "lat": 73.45857743342184, "lon": -40.2188626053675, "alt_km": 635.3671962866738, "timestamp": "2025-12-02T21:34:00.939917+00:00", "meta": {"OBJECT_NAME": "UK-DMC 2", "OBJECT_ID": "2009-041C", "EPOCH": "2025-12-02T11:19:48.098208", "MEAN_MOTION": 14.75584626, "ECCENTRICITY": 0.0001272, "INCLINATION": 97.8556, "RA_OF_ASC_NODE": 111.6655, "ARG_OF_PERICENTER": 102.9413, "MEAN_ANOMALY": 257.1939, "EPHEMERIS_TYPE": 0, "CLASSIFICATION_TYPE": "U", "NORAD_CAT_ID": 35683, "ELEMENT_SET_NO": 999, "REV_AT_EPOCH": 87755, "BSTAR": 0.000221, "MEAN_MOTION_DOT": 1.458e-05, "MEAN_MOTION_DDOT": 0}, "tle": {"line1": "1 35683U 09041C   25336.47208447  .00001458  00000+0  22100-3 0  9999", "line2": "2 35683  97.8556 111.6655 0001272 102.9413 257.1939 14.75584626877550"}}, "geometry": {"type": "Point", "coordinates": [-40.2188626053675, 73.45857743342184]}}, {"type": "Feature", "properties": {"norad_id": 40715, "name": "DMC3-FM1", "group": "dmc", "lat": 13.536141362896792, "lon": 26.308206840401695, "alt_km": 617.1282159815237, "timestamp": "2025-12-02T21:34:00.939928+00:00", "meta": {"OBJECT_NAME": "DMC3-FM1", "OBJECT_ID": "2015-032A", "EPOCH": "2025-12-02T12:44:14.910432", "MEAN_MOTION": 14.85411217, "ECCENTRICITY": 0.0005405, "INCLINATION": 97.67, "RA_OF_ASC_NODE": 204.0946, "ARG_OF_PERICENTER": 357.3037, "MEAN_ANOMALY": 2.8149, "EPHEMERIS_TYPE": 0, "CLASSIFICATION_TYPE": "U", "NORAD_CAT_ID": 40715, "ELEMENT_SET_NO": 999, "REV_AT_EPOCH": 56071, "BSTAR": 0.00013869, "MEAN_MOTION_DOT": 1.143e-05, "MEAN_MOTION_DDOT": 0}, "tle": {"line1": "1 40715U 15032A   25336.53072813  .00001143  00000+0  13869-3 0  9994", "line2": "2 40715  97.6700 204.0946 0005405 357.3037   2.8149 14.85411217560712"}}, "geometry": {"type": "Point", "coordinates": [26.308206840401695, 13.536141362896792]}}, {"type": "Feature", "properties": {"norad_id": 40716, "name": "DMC3-FM2", "group": "dmc", "lat": 45.377196320089354, "lon": -161.96836913754697, "alt_km": 605.4545953668794, "timestamp": "2025-12-02T21:34:00.939938+00:00", "meta": {"OBJECT_NAME": "DMC3-FM2", "OBJECT_ID": "2015-032B", "EPOCH": "2025-12-02T11:39:39.436704", "MEAN_MOTION": 14.854123, "ECCENTRICITY": 0.0006061, "INCLINATION": 97.6757, "RA_OF_ASC_NODE": 205.4879, "ARG_OF_PERICENTER": 1.469, "MEAN_ANOMALY": 358.6542, "EPHEMERIS_TYPE": 0, "CLASSIFICATION_TYPE": "U", "NORAD_CAT_ID": 40716, "ELEMENT_SET_NO": 999, "REV_AT_EPOCH": 56070, "BSTAR": 0.00014258, "MEAN_MOTION_DOT": 1.177e-05, "MEAN_MOTION_DDOT": 0}, "tle": {"line1": "1 40716U 15032B   25336.48587311  .00001177  00000+0  14258-3 0  9993", "line2": "2 40716  97.6757 205.4879 0006061   1.4690 358.6542 14.85412300560708"}}, "geometry": {"type": "Point", "coordinates": [-161.96836913754697, 45.377196320089354]}}, {"type": "Feature", "properties": {"norad_id": 40717, "name": "DMC3-FM3", "group": "dmc", "lat": -68.08768832704234, "lon": -132.88364473380096, "alt_km": 618.3881912107936, "timestamp": "2025-12-02T21:34:00.939949+00:00", "meta": {"OBJECT_NAME": "DMC3-FM3", "OBJECT_ID": "2015-032C", "EPOCH": "2025-12-02T13:47:42.687168", "MEAN_MOTION": 14.85406568, "ECCENTRICITY": 0.0005406, "INCLINATION": 97.6811, "RA_OF_ASC_NODE": 207.2, "ARG_OF_PERICENTER": 3.341, "MEAN_ANOMALY": 356.7841, "EPHEMERIS_TYPE": 0, "CLASSIFICATION_TYPE": "U", "NORAD_CAT_ID": 40717, "ELEMENT_SET_NO": 999, "REV_AT_EPOCH": 56072, "BSTAR": 0.0001168, "MEAN_MOTION_DOT": 9.54e-06, "MEAN_MOTION_DDOT": 0}, "tle": {"line1": "1 40717U 15032C   25336.57479962  .00000954  00000+0  11680-3 0  9994", "line2": "2 40717  97.6811 207.2000 0005406   3.3410 356.7841 14.85406568560721"}}, "geometry": {"type": "Point", "coordinates": [-132.88364473380096, -68.08768832704234]}}]}